COSMOS 2425 (716)       
1 29670U 06062A   21242.62883887  .00000082  00000-0  00000-0 0  9999
2 29670  64.8263 252.9422 0024118 340.3363 199.2605  2.13114853114252
COSMOS 2433 (720)       
1 32275U 07052A   21243.58957622 -.00000064  00000-0  00000-0 0  9990
2 32275  66.0717  14.2916 0002645 192.4645 174.2649  2.13104230107792
COSMOS 2432 (719)       
1 32276U 07052B   21243.61037985 -.00000063  00000-0  00000-0 0  9995
2 32276  66.0861  14.3867 0007677 334.6640 357.1209  2.13103453107783
COSMOS 2434 (721)       
1 32393U 07065A   21243.12476453  .00000086  00000-0  00000-0 0  9996
2 32393  64.4437 251.3502 0001097 172.9061  85.8429  2.13103044106484
COSMOS 2436 (723)       
1 32395U 07065C   21243.32410536  .00000087  00000-0  00000-0 0  9991
2 32395  64.4529 251.3980 0014087 349.5189 198.2274  2.13102937106425
COSMOS 2456 (730)       
1 36111U 09070A   21243.32259050 -.00000019  00000-0  00000-0 0  9997
2 36111  64.2879 131.0144 0003718 320.8516 259.2354  2.13099395 91155
COSMOS 2457 (733)       
1 36112U 09070B   21243.03723012 -.00000020  00000-0  00000-0 0  9992
2 36112  64.2695 130.9053 0004917 162.5131 323.6365  2.13101599 91153
COSMOS 2459 (731)       
1 36400U 10007A   21243.58723644 -.00000065  00000-0  00000-0 0  9994
2 36400  65.9681  13.2054 0024863 351.5964 232.0306  2.13108578 89504
COSMOS 2461 (735)       
1 36401U 10007B   21243.76310354 -.00000065  00000-0  00000-0 0  9995
2 36401  65.9631  13.1643 0018827  13.5424 344.1421  2.13103642 89513
COSMOS 2460 (732)       
1 36402U 10007C   21243.32924559 -.00000065  00000-0  00000-0 0  9996
2 36402  65.9506  13.1341 0002464 125.2976 205.1020  2.13106507 89506
COSMOS 2464 (736)       
1 37139U 10041C   21243.63939100  .00000088  00000-0  00000-0 0  9998
2 37139  64.0435 250.5514 0026621   5.2842 148.6304  2.13100730 85575
COSMOS 2471 (701K)      
1 37372U 11009A   21243.61211596 -.00000065  00000-0  00000-0 0  9998
2 37372  65.9450  13.0543 0015509 224.2502 100.2082  2.13062194 81781
COSMOS 2476 (744)       
1 37867U 11064A   21243.46260091 -.00000018  00000-0  00000-0 0  9993
2 37867  64.5803 132.2522 0020375 236.7965 353.6805  2.13101895 76509
COSMOS 2477 (745)       
1 37868U 11064B   21242.84540449 -.00000021  00000-0  00000-0 0  9997
2 37868  64.5891 132.3355 0017869 238.0570  57.2198  2.13101840 76448
COSMOS 2475 (743)       
1 37869U 11064C   21243.25048403 -.00000020  00000-0  00000-0 0  9996
2 37869  64.5967 132.3260 0021951 257.6621 306.1546  2.13102201 76466
COSMOS 2485 (747)       
1 39155U 13019A   21243.39116689 -.00000019  00000-0  00000-0 0  9993
2 39155  64.7463 132.6207 0020662 231.5630 348.5830  2.13102223 64975
COSMOS 2492 (754)       
1 39620U 14012A   21243.46622476 -.00000066  00000-0  00000-0 0  9990
2 39620  65.8375  12.8522 0010752 327.3035 345.1484  2.13103214 57923
COSMOS 2500 (755)       
1 40001U 14032A   21243.69315569 -.00000066  00000-0  00000+0 0  9993
2 40001  65.7778  12.7258 0007278 184.5600 161.4393  2.13102420 56148
COSMOS 2501 (702K)      
1 40315U 14075A   21243.64220943  .00000087  00000-0  00000-0 0  9997
2 40315  63.7541 251.3313 0018923 213.1774 260.4109  2.13101392 52558
COSMOS 2514 (751)       
1 41330U 16008A   21243.55676837 -.00000067  00000-0  00000-0 0  9999
2 41330  65.5796  12.4944 0010515 200.9227 223.7168  2.13102815 43312
COSMOS 2516 (753)       
1 41554U 16032A   21243.52068951  .00000087  00000-0  00000-0 0  9994
2 41554  63.9799 251.5301 0015892 221.6678  72.1841  2.13107154 40919
COSMOS 2522 (752)       
1 42939U 17055A   21243.66216722  .00000088  00000-0  00000-0 0  9995
2 42939  64.2129 251.8347 0010219 245.6990  18.2903  2.13101928 30677
COSMOS 2527 (756)       
1 43508U 18053A   21243.27688345 -.00000019  00000-0  00000-0 0  9993
2 43508  64.9122 132.5632 0007317 226.5671 133.9645  2.13102476 24963
COSMOS 2529 (757)       
1 43687U 18086A   21243.66186280  .00000088  00000-0  00000-0 0  9996
2 43687  64.4276 252.0732 0012261 264.9565 314.3707  2.13102155 21984
COSMOS 2534 (758)       
1 44299U 19030A   21244.20455142  .00000090  00000-0  00000+0 0  9995
2 44299  64.4983 251.9126 0014618 281.9189 128.5329  2.13101948 17645
COSMOS 2544 (759)       
1 44850U 19088A   21243.45680899 -.00000018  00000-0  00000-0 0  9998
2 44850  64.8945 132.4153 0011834 262.1396 280.1233  2.13102355 13391
COSMOS 2545 (760)       
1 45358U 20018A   21243.38025339 -.00000067  00000-0  00000-0 0  9995
2 45358  64.9139  13.3468 0008012 234.3738  99.0699  2.13102714 11347
